UMBRA-10                
1 60547U 24149CH  26060.17273389  .00020361  00000+0  11113-2 0  9996
2 60547  97.7017 145.8363 0000467  87.6373 272.4911 15.14375795 84360
ICEYE-X33               
1 60548U 24149CJ  26060.17874116  .00004942  00000+0  39136-3 0  9995
2 60548  97.7047 140.0897 0006174 145.1087 215.0543 15.01025890 84005
ICEYE-X40               
1 60549U 24149CK  26060.20648057  .00003158  00000+0  27578-3 0  9998
2 60549  97.6874 138.4412 0005632  84.4646 275.7219 14.97504124 83919
SATELIOT_1              
1 60550U 24149CL  26059.80239482  .00002239  00000+0  19672-3 0  9997
2 60550  97.6821 137.5136 0007481  81.5751 278.6319 14.97547712 83840
BRO-14                  
1 60551U 24149CM  26060.44532515  .00001674  00000+0  15466-3 0  9992
2 60551  97.6953 138.1467 0008240  97.4149 262.8009 14.95903327 83883
SATELIOT_3              
1 60552U 24149CN  26060.44601836  .00002785  00000+0  24350-3 0  9992
2 60552  97.6908 138.8381 0006755  86.4494 273.7501 14.97554669 83955
BRO-15                  
1 60553U 24149CP  26060.42504256  .00001687  00000+0  15595-3 0  9990
2 60553  97.6881 137.8301 0009644  90.2041 270.0285 14.95868736 83891
UM5-RIBAT               
1 60554U 24149CQ  26060.19268330  .00003950  00000+0  31910-3 0  9999
2 60554  97.6824 139.4175 0004141 102.2579 257.9109 15.00383829 83995
UM5-EOSAT               
1 60555U 24149CR  26060.18920057  .00004122  00000+0  32900-3 0  9992
2 60555  97.6903 140.2362 0009324 130.2346 229.9695 15.00807973 84017
LASARSAT                
1 62391U 24247Q   26060.25189374  .00033701  00000+0  84445-3 0  9994
2 62391  44.9757 145.7020 0003131 334.9913  25.0822 15.39530419 66649
CROCUBE                 
1 62394U 24247T   26060.28776632  .00037294  00000+0  90027-3 0  9993
2 62394  44.9737 144.2026 0003328 318.6447  41.4188 15.40617779 66665
TEVEL2-4                
1 63213U 25052D   26059.67284861  .00020832  00000+0  70825-3 0  9992
2 63213  97.4043 316.1259 0004330 112.3510 247.8190 15.30471958 53499
TEVEL2-5                
1 63214U 25052E   26060.27158351  .00021741  00000+0  74098-3 0  9991
2 63214  97.4041 316.6972 0004355 111.9591 248.2113 15.30382546 53580
TEVEL2-6                
1 63215U 25052F   26060.47734203  .00022997  00000+0  78427-3 0  9994
2 63215  97.4041 316.8888 0004466 111.9746 248.1969 15.30350670 53619
TEVEL2-1                
1 63217U 25052H   26060.21174843  .00020976  00000+0  72507-3 0  9994
2 63217  97.4016 316.3638 0004202 122.3760 237.7888 15.29931347 53563
TEVEL2-3                
1 63218U 25052J   26060.27492242  .00021642  00000+0  74709-3 0  9994
2 63218  97.4020 316.4377 0004241 122.7546 237.4103 15.29968078 53578
TEVEL2-2                
1 63219U 25052K   26060.27782420  .00021508  00000+0  74325-3 0  9990
2 63219  97.4018 316.4308 0004176 122.6943 237.4701 15.29936157 53574
TEVEL2-9                
1 63237U 25052AD  26060.25687720  .00020071  00000+0  73020-3 0  9990
2 63237  97.4080 315.9942 0007077 148.6196 211.5468 15.28250971 53522
TEVEL2-7                
1 63238U 25052AE  26060.47646644  .00019702  00000+0  72123-3 0  9997
2 63238  97.4083 316.1669 0007316 148.3368 211.8313 15.28049764 53550
TEVEL2-8                
1 63239U 25052AF  26060.22142375  .00019029  00000+0  69743-3 0  9999
2 63239  97.4082 315.8947 0007204 149.5961 210.5697 15.28017325 53518
HADES-ICM               
1 63492U 25052BN  26060.27051572  .00134665  00000+0  20333-2 0  9998
2 63492  97.3979 320.4275 0007933 128.0875 232.1095 15.54234589 53833
