OBJECT_NAME,OBJECT_ID,EPOCH,MEAN_MOTION,ECCENTRICITY,INCLINATION,RA_OF_ASC_NODE,ARG_OF_PERICENTER,MEAN_ANOMALY,EPHEMERIS_TYPE,CLASSIFICATION_TYPE,NORAD_CAT_ID,ELEMENT_SET_NO,REV_AT_EPOCH,BSTAR,MEAN_MOTION_DOT,MEAN_MOTION_DDOT
UMBRA-10,2024-149CH,2026-03-01T04:08:44.208096,15.14375795,.00004672,97.7017,145.8363,87.6373,272.4911,0,U,60547,999,8436,.11112575E-2,.20361E-3,0
ICEYE-X33,2024-149CJ,2026-03-01T04:17:23.236224,15.01025890,.00061747,97.7047,140.0897,145.1087,215.0543,0,U,60548,999,8400,.39135716E-3,.4942E-4,0
ICEYE-X40,2024-149CK,2026-03-01T04:57:19.921248,14.97504124,.0005632,97.6874,138.4412,84.4646,275.7219,0,U,60549,999,8391,.27578E-3,.3158E-4,0
SATELIOT_1,2024-149CL,2026-02-28T19:15:26.912448,14.97547712,.00074816,97.6821,137.5136,81.5751,278.6319,0,U,60550,999,8384,.19671931E-3,.2239E-4,0
BRO-14,2024-149CM,2026-03-01T10:41:16.092960,14.95903327,.000824,97.6953,138.1467,97.4149,262.8009,0,U,60551,999,8388,.15466E-3,.1674E-4,0
SATELIOT_3,2024-149CN,2026-03-01T10:42:15.986304,14.97554669,.0006755,97.6908,138.8381,86.4494,273.7501,0,U,60552,999,8395,.2435E-3,.2785E-4,0
BRO-15,2024-149CP,2026-03-01T10:12:03.677184,14.95868736,.0009644,97.6881,137.8301,90.2041,270.0285,0,U,60553,999,8389,.15595E-3,.1687E-4,0
UM5-RIBAT,2024-149CQ,2026-03-01T04:37:27.837120,15.00383829,.00041414,97.6824,139.4175,102.2579,257.9109,0,U,60554,999,8399,.31909981E-3,.395E-4,0
UM5-EOSAT,2024-149CR,2026-03-01T04:32:26.929248,15.00807973,.00093241,97.6903,140.2362,130.2346,229.9695,0,U,60555,999,8401,.32900066E-3,.4122E-4,0
LASARSAT,2024-247Q,2026-03-01T06:02:43.619136,15.39530419,.0003131,44.9757,145.7020,334.9913,25.0822,0,U,62391,999,6664,.84445E-3,.33701E-3,0
CROCUBE,2024-247T,2026-03-01T06:54:23.010048,15.40617779,.0003328,44.9737,144.2026,318.6447,41.4188,0,U,62394,999,6666,.90027E-3,.37294E-3,0
TEVEL2-4,2025-052D,2026-02-28T16:08:54.119904,15.30471958,.00043303,97.4043,316.1259,112.3510,247.8190,0,U,63213,999,5349,.70825117E-3,.20832E-3,0
TEVEL2-5,2025-052E,2026-03-01T06:31:04.815264,15.30382546,.0004355,97.4041,316.6972,111.9591,248.2113,0,U,63214,999,5358,.74098E-3,.21741E-3,0
TEVEL2-6,2025-052F,2026-03-01T11:27:22.351392,15.30350670,.0004466,97.4041,316.8888,111.9746,248.1969,0,U,63215,999,5361,.78427E-3,.22997E-3,0
TEVEL2-1,2025-052H,2026-03-01T05:04:55.064352,15.29931347,.0004202,97.4016,316.3638,122.3760,237.7888,0,U,63217,999,5356,.72507E-3,.20976E-3,0
TEVEL2-3,2025-052J,2026-03-01T06:35:53.297088,15.29968078,.0004241,97.4020,316.4377,122.7546,237.4103,0,U,63218,999,5357,.74709E-3,.21642E-3,0
TEVEL2-2,2025-052K,2026-03-01T06:40:04.010880,15.29936157,.0004176,97.4018,316.4308,122.6943,237.4701,0,U,63219,999,5357,.74325E-3,.21508E-3,0
TEVEL2-9,2025-052AD,2026-03-01T06:09:54.190080,15.28250971,.0007077,97.4080,315.9942,148.6196,211.5468,0,U,63237,999,5352,.7302E-3,.20071E-3,0
TEVEL2-7,2025-052AE,2026-03-01T11:26:06.700416,15.28049764,.0007316,97.4083,316.1669,148.3368,211.8313,0,U,63238,999,5355,.72123E-3,.19702E-3,0
TEVEL2-8,2025-052AF,2026-03-01T05:18:51.012000,15.28017325,.0007204,97.4082,315.8947,149.5961,210.5697,0,U,63239,999,5351,.69743E-3,.19029E-3,0
HADES-ICM,2025-052BN,2026-03-01T06:29:32.558208,15.54234589,.0007933,97.3979,320.4275,128.0875,232.1095,0,U,63492,999,5383,.20333E-2,.134665E-2,0